OBJECT_NAME,OBJECT_ID,EPOCH,MEAN_MOTION,ECCENTRICITY,INCLINATION,RA_OF_ASC_NODE,ARG_OF_PERICENTER,MEAN_ANOMALY,EPHEMERIS_TYPE,CLASSIFICATION_TYPE,NORAD_CAT_ID,ELEMENT_SET_NO,REV_AT_EPOCH,BSTAR,MEAN_MOTION_DOT,MEAN_MOTION_DDOT
SPACEMOBILE-006,2025-309A,2026-07-10T11:20:22.800768,15.18647033,.0010446,52.9937,224.9712,200.1439,159.9144,0,U,67232,999,3013,.25498E-4,.213E-5,0
SPACEMOBILE-008,2026-139A,2026-07-10T22:11:28.792320,15.12798577,.0004851,52.9942,154.7960,46.4367,313.7027,0,U,69589,999,357,.24411E-4,.132E-5,0
SPACEMOBILE-009,2026-139B,2026-07-10T22:13:52.273344,15.12691782,.000509,52.9932,154.8015,41.8205,318.3174,0,U,69590,999,357,.21885E-4,.86E-6,0
SPACEMOBILE-010,2026-139C,2026-07-10T22:17:40.116192,15.12522765,.0004992,52.9937,154.8204,33.2635,326.8669,0,U,69591,999,358,.19202E-4,.38E-6,0
